[{"OBJECT_NAME":"STARLINK-5538","OBJECT_ID":"2023-058AS","EPOCH":"2026-03-09T23:22:38.936064","MEAN_MOTION":15.05646412,"ECCENTRICITY":0.00018711,"INCLINATION":97.604,"RA_OF_ASC_NODE":71.5649,"ARG_OF_PERICENTER":86.2695,"MEAN_ANOMALY":273.8745,"EPHEMERIS_TYPE":0,"CLASSIFICATION_TYPE":"U","NORAD_CAT_ID":56357,"ELEMENT_SET_NO":999,"REV_AT_EPOCH":15824,"BSTAR":-1.2001266e-5,"MEAN_MOTION_DOT":-2.34e-6,"MEAN_MOTION_DDOT":0},{"OBJECT_NAME":"CZ-6A DEB","OBJECT_ID":"2024-140ADS","EPOCH":"2026-03-09T14:05:09.302208","MEAN_MOTION":15.17885306,"ECCENTRICITY":0.0073653,"INCLINATION":89.0442,"RA_OF_ASC_NODE":281.8925,"ARG_OF_PERICENTER":121.24,"MEAN_ANOMALY":239.6089,"EPHEMERIS_TYPE":0,"CLASSIFICATION_TYPE":"U","NORAD_CAT_ID":64628,"ELEMENT_SET_NO":999,"REV_AT_EPOCH":8034,"BSTAR":0.0029018,"MEAN_MOTION_DOT":0.00063537,"MEAN_MOTION_DDOT":0}]
